STARS (KUKAI)           
1 33498U 09002G   26157.64900230  .00004615  00000+0  42025-3 0  9994
2 33498  98.1540 104.5282 0007970 195.4498 164.6480 14.95675111936907
KKS-1 (KISEKI)          
1 33499U 09002H   26157.79925389  .00001481  00000+0  18860-3 0  9991
2 33499  98.1193  80.0770 0007192 334.4433  25.6423 14.83097275934651
UK-DMC 2                
1 35683U 09041C   26157.85383966  .00000680  00000+0  10592-3 0  9991
2 35683  97.8829 293.0735 0001344  70.4961 289.6393 14.76013613905048
OCEANSAT-2              
1 35931U 09051A   26157.83411056  .00000142  00000+0  12313-3 0  9994
2 35931  98.2323 145.7184 0014583 267.8097  92.1400 13.99663517877884
SWISSCUBE               
1 35932U 09051B   26156.46919883  .00001141  00000+0  23506-3 0  9990
2 35932  98.4043  64.1532 0005430 246.3597 113.7034 14.62458715887444
BEESAT-1                
1 35933U 09051C   26157.84162723  .00000916  00000+0  19376-3 0  9996
2 35933  98.3972  65.2066 0003901 258.2336 101.8427 14.61703876887672
ITUPSAT1                
1 35935U 09051E   26155.69953963  .00000958  00000+0  20796-3 0  9997
2 35935  98.4056  62.2366 0006134 280.9538  79.0971 14.60421767886916
DMSP 5D-3 F18 (USA 210) 
1 35951U 09057A   26157.81652328  .00000250  00000+0  15268-3 0  9991
2 35951  98.9033 138.6084 0009888 282.5348  77.4719 14.14890964858127
PROBA-2                 
1 36037U 09059B   26157.78657709  .00000207  00000+0  58854-4 0  9994
2 36037  98.2451 341.2838 0012323 317.2726  42.7512 14.54857997880015
YAOGAN-7                
1 36110U 09069A   26157.59533284  .00000571  00000+0  86021-4 0  9998
2 36110  98.0084  43.5272 0025983  74.3293 286.0781 14.77999271888068
XIWANG-1 (HOPE-1)       
1 36122U 09072B   26157.83200199  .00000307  00000+0  91931-3 0  9990
2 36122 100.4028 111.8301 0006778 257.6443 102.3911 13.16440533791649
COSMOS 2463             
1 36519U 10017A   26157.52996819  .00000069  00000+0  59470-4 0  9996
2 36519  82.9609 257.5353 0036786 157.6992 213.3326 13.71665075806475
CARTOSAT-2B             
1 36795U 10035A   26157.85081360  .00001041  00000+0  14921-3 0  9996
2 36795  97.9953 208.4660 0010350 219.3939 140.6520 14.78649575858325
TISAT 1                 
1 36799U 10035E   26157.66327346  .00026497  00000+0  87699-3 0  9990
2 36799  98.0706 103.2819 0000107  46.3405 313.7844 15.31307713866090
YAOGAN-10               
1 36834U 10038A   26157.85377376  .00002148  00000+0  25620-3 0  9995
2 36834  97.8979 181.3407 0001700  88.1708  35.6180 14.85318431855671
SHIJIAN-6 04B (SJ-6 04B)
1 37180U 10051B   26157.87863493  .00000931  00000+0  81303-4 0  9996
2 37180  97.8685 163.1843 0009413 346.5022  13.5947 14.99290774854131
FENGYUN 3B              
1 37214U 10059A   26157.85949392  .00000297  00000+0  17713-3 0  9991
2 37214  98.9618 203.8301 0021396 213.9605 319.5841 14.14839845805960
COSMO-SKYMED 4          
1 37216U 10060A   26157.84457983  .00000098  00000+0  18899-4 0  9990
2 37216  97.8887 341.5941 0001420  82.4721 277.6653 14.82159918843038
O/OREOS (USA 219)       
1 37224U 10062C   26156.87810413  .00002979  00000+0  28689-3 0  9991
2 37224  71.9702 105.9546 0012370  87.8701 272.3886 14.93695134114951
RESOURCESAT-2           
1 37387U 11015A   26157.81314028  .00000086  00000+0  59406-4 0  9995
2 37387  98.7645 225.3262 0010147 289.0159  70.9918 14.21604259784702
YOUTHSAT                
1 37388U 11015B   26157.72073583  .00000214  00000+0  10762-3 0  9998
2 37388  98.3677 132.2471 0014895  17.5863 155.8429 14.25626010786145
APRIZESAT 6             
1 37793U 11044F   26156.51628799  .00000814  00000+0  12180-3 0  9993
2 37793  98.2372  66.7773 0044238 122.3000  58.2477 14.76898404795428
JUGNU                   
1 37839U 11058B   26157.30783240  .00000452  00000+0  96537-4 0  9997
2 37839  19.9622  14.5210 0018503 316.3264 216.4094 14.13773989757485
SRMSAT                  
1 37841U 11058D   26157.27188351  .00000385  00000+0  65061-4 0  9991
2 37841  19.9704 125.5359 0011947  84.3565  18.6414 14.11573396756279
SUOMI NPP               
1 37849U 11061A   26157.83811256  .00000086  00000+0  61986-4 0  9992
2 37849  98.7951  98.7851 0002082  28.9933 331.1358 14.19515279756978
YAOGAN-12               
1 37875U 11066B   26157.84330160  .00008538  00000+0  32966-3 0  9992
2 37875  97.1151 196.8983 0008060 260.7455  99.2873 15.26472491810461
